KUIPER-00616            
1 69775U 26151N   26195.13932219  .00012384  00000+0  33191-3 0  9999
2 69775  51.8771 185.4118 0003155 116.6341 243.4970 15.38374449  1850
KUIPER-00617            
1 69776U 26151P   26195.14311176  .00014980  00000+0  40708-3 0  9990
2 69776  51.8781 185.4330 0003769 128.8587 231.2737 15.37767138  1852
KUIPER-00619            
1 69777U 26151Q   26195.13737847  .00012955  00000+0  34509-3 0  9999
2 69777  51.8788 185.3926 0001797  59.3933 300.7231 15.38521227  1851
KUIPER-00621            
1 69778U 26151R   26195.13914380  .00008107  00000+0  22145-3 0  9996
2 69778  51.8781 185.4077 0002023 108.3168 251.8040 15.38308145  1857
KUIPER-00622            
1 69779U 26151S   26195.14919476  .00013167  00000+0  36820-3 0  9996
2 69779  51.8716 185.4707 0007944 148.6003 211.5459 15.36975538  1859
KUIPER-00623            
1 69780U 26151T   26195.14547503  .00010788  00000+0  29959-3 0  9997
2 69780  51.8765 185.4508 0005075 128.3678 231.7766 15.37415764  1856
KUIPER-00626            
1 69781U 26151U   26195.15753201 -.00005444  00000+0 -14451-3 0  9999
2 69781  51.8719 185.5258 0009570 161.6788 198.4545 15.35438323  1853
KUIPER-00627            
1 69782U 26151V   26195.15922372  .00010033  00000+0  29697-3 0  9993
2 69782  51.8686 185.5378 0010640 161.7335 198.4035 15.35460568  1859
KUIPER-00629            
1 69783U 26151W   26195.14965897  .00011554  00000+0  32475-3 0  9999
2 69783  51.8734 185.4782 0007126 140.9345 219.2157 15.36953618  1858
KUIPER-00631            
1 69784U 26151X   26195.15142736  .00006407  00000+0  18627-3 0  9994
2 69784  51.8707 185.4890 0007934 151.2672 208.8753 15.36728049  1858
KUIPER-00634            
1 69785U 26151Y   26195.14358646  .00011827  00000+0  32419-3 0  9990
2 69785  51.8760 185.4396 0003768 131.1589 228.9723 15.37723083  1858
KUIPER-00639            
1 69786U 26151Z   26195.15556642  .00005314  00000+0  16065-3 0  9991
2 69786  51.8686 185.5128 0009914 159.2581 200.8809 15.35852381  1858
KUIPER-00641            
1 69787U 26151AA  26195.15981277  .00045052  00000+0  13050-2 0  9991
2 69787  51.8672 185.5395 0009822 163.0078 197.1238 15.35079190  1855
KUIPER-00644            
1 69788U 26151AB  26195.15284324  .00018068  00000+0  50762-3 0  9990
2 69788  51.8732 185.4974 0009133 154.1175 206.0269 15.36551769  1851
KUIPER-00646            
1 69789U 26151AC  26195.15518793  .00011488  00000+0  33310-3 0  9990
2 69789  51.8700 185.5113 0009928 160.0452 200.0924 15.35962778  1856
KUIPER-00647            
1 69790U 26151AD  26195.15838316  .00010152  00000+0  29863-3 0  9993
2 69790  51.8652 185.5298 0011222 159.9594 200.1834 15.35637644  1854
KUIPER-00662            
1 69791U 26151AE  26195.15217256  .00007061  00000+0  20521-3 0  9995
2 69791  51.8721 185.4938 0008413 150.2496 209.8970 15.36565530  1857
LINK                    
1 69792U 26152A   26195.10254260  .00141530  00000+0  12315-2 0  9999
2 69792  20.5926 335.8091 0024402 340.4016  19.5493 15.66835565  1684
2026-152B               
1 69793U 26152B   26194.72720641  .00034944  00000+0  33008-3 0  9991
2 69793  20.5989 338.8282 0022426 333.1353  26.7932 15.64685266  1627
ISS OBJECT YJ           
1 69794U 98067YJ  26194.43838318  .00017988  00000+0  32264-3 0  9997
2 69794  51.6301 170.1134 0007811 305.5118  54.5142 15.49957233  1729
ISS OBJECT YK           
1 69795U 98067YK  26194.37091455  .00033989  00000+0  58846-3 0  9997
2 69795  51.6301 170.4128 0006807 314.4532  45.5899 15.50575827  1714
ISS OBJECT YL           
1 69796U 98067YL  26194.37160695  .00025917  00000+0  45406-3 0  9991
2 69796  51.6299 170.4178 0008861 306.7235  53.2940 15.50369871  1704
ISS OBJECT YM           
1 69797U 98067YM  26194.37140377  .00026574  00000+0  46457-3 0  9994
2 69797  51.6301 170.4160 0009618 297.8324  62.1689 15.50409169  1692
ISS OBJECT YN           
1 69798U 98067YN  26194.37185842  .00018226  00000+0  32347-3 0  9999
2 69798  51.6304 170.4185 0009230 308.8038  51.2126 15.50236052  1715
ISS OBJECT YP           
1 69799U 98067YP  26194.37132593  .00025785  00000+0  45104-3 0  9998
2 69799  51.6300 170.4156 0009781 297.9312  62.0686 15.50408240  1704
CZ-6A R/B               
1 69800U 26153A   26195.15012178  .00000183  00000+0  37402-4 0  9999
2 69800  89.0161 359.1005 0087071  90.4462 270.6725 14.53448269  1423
QIANFAN-13 OBJECT B     
1 69801U 26153B   26195.19858829  .00000059  00000+0  19690-4 0  9996
2 69801  88.9920 359.1650 0007264 183.5929 176.5212 14.22911175  1409
QIANFAN-13 OBJECT C     
1 69802U 26153C   26195.19772505  .00000059  00000+0  19414-4 0  9997
2 69802  88.9920 359.1650 0007562 184.0992 176.0139 14.23362526  1401
QIANFAN-13 OBJECT D     
1 69803U 26153D   26195.19715203  .00000058  00000+0  19453-4 0  9992
2 69803  88.9921 359.1650 0007081 186.8036 173.3060 14.22390237  1400
QIANFAN-13 OBJECT E     
1 69804U 26153E   26195.19823840  .00000057  00000+0  19040-4 0  9991
2 69804  88.9919 359.1649 0007277 185.3034 174.8081 14.22264184  1405
