OBJECT_NAME,OBJECT_ID,EPOCH,MEAN_MOTION,ECCENTRICITY,INCLINATION,RA_OF_ASC_NODE,ARG_OF_PERICENTER,MEAN_ANOMALY,EPHEMERIS_TYPE,CLASSIFICATION_TYPE,NORAD_CAT_ID,ELEMENT_SET_NO,REV_AT_EPOCH,BSTAR,MEAN_MOTION_DOT,MEAN_MOTION_DDOT
KUIPER-00616,2026-151N,2026-07-14T03:20:37.437216,15.38374449,.0003155,51.8771,185.4118,116.6341,243.4970,0,U,69775,999,185,.33191E-3,.12384E-3,0
KUIPER-00617,2026-151P,2026-07-14T03:26:04.856064,15.37767138,.0003769,51.8781,185.4330,128.8587,231.2737,0,U,69776,999,185,.40708E-3,.1498E-3,0
KUIPER-00619,2026-151Q,2026-07-14T03:17:49.499808,15.38521227,.0001797,51.8788,185.3926,59.3933,300.7231,0,U,69777,999,185,.34509E-3,.12955E-3,0
KUIPER-00621,2026-151R,2026-07-14T03:20:22.024320,15.38308145,.0002023,51.8781,185.4077,108.3168,251.8040,0,U,69778,999,185,.22145E-3,.8107E-4,0
KUIPER-00622,2026-151S,2026-07-14T03:34:50.427264,15.36975538,.0007944,51.8716,185.4707,148.6003,211.5459,0,U,69779,999,185,.3682E-3,.13167E-3,0
KUIPER-00623,2026-151T,2026-07-14T03:29:29.042592,15.37415764,.0005075,51.8765,185.4508,128.3678,231.7766,0,U,69780,999,185,.29959E-3,.10788E-3,0
KUIPER-00626,2026-151U,2026-07-14T03:46:50.765664,15.35438323,.000957,51.8719,185.5258,161.6788,198.4545,0,U,69781,999,185,-.14451E-3,-.5444E-4,0
KUIPER-00627,2026-151V,2026-07-14T03:49:16.929408,15.35460568,.001064,51.8686,185.5378,161.7335,198.4035,0,U,69782,999,185,.29697E-3,.10033E-3,0
KUIPER-00629,2026-151W,2026-07-14T03:35:30.535008,15.36953618,.0007126,51.8734,185.4782,140.9345,219.2157,0,U,69783,999,185,.32475E-3,.11554E-3,0
KUIPER-00631,2026-151X,2026-07-14T03:38:03.323904,15.36728049,.0007934,51.8707,185.4890,151.2672,208.8753,0,U,69784,999,185,.18627E-3,.6407E-4,0
KUIPER-00634,2026-151Y,2026-07-14T03:26:45.870144,15.37723083,.0003768,51.8760,185.4396,131.1589,228.9723,0,U,69785,999,185,.32419E-3,.11827E-3,0
KUIPER-00639,2026-151Z,2026-07-14T03:44:00.938688,15.35852381,.0009914,51.8686,185.5128,159.2581,200.8809,0,U,69786,999,185,.16065E-3,.5314E-4,0
KUIPER-00641,2026-151AA,2026-07-14T03:50:07.823328,15.35079190,.0009822,51.8672,185.5395,163.0078,197.1238,0,U,69787,999,185,.1305E-2,.45052E-3,0
KUIPER-00644,2026-151AB,2026-07-14T03:40:05.655936,15.36551769,.0009133,51.8732,185.4974,154.1175,206.0269,0,U,69788,999,185,.50762E-3,.18068E-3,0
KUIPER-00646,2026-151AC,2026-07-14T03:43:28.237152,15.35962778,.0009928,51.8700,185.5113,160.0452,200.0924,0,U,69789,999,185,.3331E-3,.11488E-3,0
KUIPER-00647,2026-151AD,2026-07-14T03:48:04.305024,15.35637644,.0011222,51.8652,185.5298,159.9594,200.1834,0,U,69790,999,185,.29863E-3,.10152E-3,0
KUIPER-00662,2026-151AE,2026-07-14T03:39:07.709184,15.36565530,.0008413,51.8721,185.4938,150.2496,209.8970,0,U,69791,999,185,.20521E-3,.7061E-4,0
LINK,2026-152A,2026-07-14T02:27:39.680640,15.66835565,.0024402,20.5926,335.8091,340.4016,19.5493,0,U,69792,999,168,.12315E-2,.14153E-2,0
2026-152B,2026-152B,2026-07-13T17:27:10.633824,15.64685266,.0022426,20.5989,338.8282,333.1353,26.7932,0,U,69793,999,162,.33008E-3,.34944E-3,0
ISS OBJECT YJ,1998-067YJ,2026-07-13T10:31:16.306752,15.49957233,.00078116,51.6301,170.1134,305.5118,54.5142,0,U,69794,999,172,.3226418E-3,.17988E-3,0
ISS OBJECT YK,1998-067YK,2026-07-13T08:54:07.017120,15.50575827,.00068072,51.6301,170.4128,314.4532,45.5899,0,U,69795,999,171,.58846051E-3,.33989E-3,0
ISS OBJECT YL,1998-067YL,2026-07-13T08:55:06.840480,15.50369871,.00088613,51.6299,170.4178,306.7235,53.2940,0,U,69796,999,170,.45406084E-3,.25917E-3,0
ISS OBJECT YM,1998-067YM,2026-07-13T08:54:49.285728,15.50409169,.00096183,51.6301,170.4160,297.8324,62.1689,0,U,69797,999,169,.46456821E-3,.26574E-3,0
ISS OBJECT YN,1998-067YN,2026-07-13T08:55:28.567488,15.50236052,.00092309,51.6304,170.4185,308.8038,51.2126,0,U,69798,999,171,.3234728E-3,.18226E-3,0
ISS OBJECT YP,1998-067YP,2026-07-13T08:54:42.560352,15.50408240,.00097817,51.6300,170.4156,297.9312,62.0686,0,U,69799,999,170,.45104091E-3,.25785E-3,0
CZ-6A R/B,2026-153A,2026-07-14T03:36:10.521792,14.53448269,.0087071,89.0161,359.1005,90.4462,270.6725,0,U,69800,999,142,.37402E-4,.183E-5,0
QIANFAN-13 OBJECT B,2026-153B,2026-07-14T04:45:58.028256,14.22911175,.0007264,88.9920,359.1650,183.5929,176.5212,0,U,69801,999,140,.1969E-4,.59E-6,0
QIANFAN-13 OBJECT C,2026-153C,2026-07-14T04:44:43.444320,14.23362526,.0007562,88.9920,359.1650,184.0992,176.0139,0,U,69802,999,140,.19414E-4,.59E-6,0
QIANFAN-13 OBJECT D,2026-153D,2026-07-14T04:43:53.935392,14.22390237,.0007081,88.9921,359.1650,186.8036,173.3060,0,U,69803,999,140,.19453E-4,.58E-6,0
QIANFAN-13 OBJECT E,2026-153E,2026-07-14T04:45:27.797760,14.22264184,.0007277,88.9919,359.1649,185.3034,174.8081,0,U,69804,999,140,.1904E-4,.57E-6,0
